HELIOS 1B               
1 25977U 99064A   26079.67687872  .00001504  00000+0  17135-3 0  9992
2 25977  98.1683 342.2425 0002182  59.5120 300.6311 14.87739205686891
TERRA                   
1 25994U 99068A   26079.94517613  .00000337  00000+0  77701-4 0  9999
2 25994  97.9570 132.9487 0003322 127.4032 284.2362 14.61025681396729
SL-16 R/B               
1 26070U 00006B   26079.96343638 -.00000048  00000+0 -22994-6 0  9992
2 26070  71.0005  74.1299 0016168 172.5095 187.6273 14.15823582350150
TITAN 4B R/B            
1 26474U 00047B   26079.95998042  .00003638  00000+0  22973-3 0  9999
2 26474  67.9913   8.8169 0039257  22.0697 338.2131 15.09664260394617
ENVISAT                 
1 27386U 02009A   26079.86851770  .00000111  00000+0  49787-4 0  9994
2 27386  98.3748  33.2009 0001283  81.9691 300.1485 14.39040749260787
IDEFIX & ARIANE 42P R/B 
1 27422U 02021B   26079.75294771  .00000243  00000+0  10899-3 0  9996
2 27422  98.5883  18.2277 0012210 150.0014 210.1871 14.31033319245609
AQUA                    
1 27424U 02022A   26079.90158448  .00000805  00000+0  17033-3 0  9997
2 27424  98.4195  47.4723 0000811 113.7632 269.5565 14.62001336270370
CZ-4B R/B               
1 27432U 02024C   26079.91696270  .00000033  00000+0  40037-4 0  9993
2 27432  98.8813 133.2658 0049900 352.3736 181.2523 14.14549588230822
MIDORI II (ADEOS-II)    
1 27597U 02056A   26079.86442207  .00000257  00000+0  11876-3 0  9999
2 27597  98.7789  38.4206 0001124  28.4412 331.6831 14.29293116211896
H-2A R/B                
1 27601U 02056E   26079.87201461  .00000232  00000+0  95576-4 0  9994
2 27601  98.3223  39.8132 0071098 127.6479 287.3113 14.33767641215715
CZ-4B R/B               
1 28059U 03049C   26079.93649096  .00000302  00000+0  80768-4 0  9997
2 28059  98.6889  75.2834 0047800 196.0799 163.8883 14.55029956188238
CZ-2C R/B               
1 28222U 04012C   26079.15822986  .00041551  00000+0  41047-3 0  9992
2 28222  97.7200 145.4513 0012937 266.6030  93.3749 15.65689873205911
SL-16 R/B               
1 28353U 04021B   26079.77103478 -.00000160  00000+0 -58358-4 0  9990
2 28353  70.9998 209.2369 0004593 355.9383   4.1702 14.14593505124405
CZ-4B R/B               
1 28415U 04035C   26079.96810889  .00007497  00000+0  26335-3 0  9993
2 28415  97.3473 114.0756 0030096 289.5404  70.2587 15.29243951181638
CZ-2C R/B               
1 28480U 04046B   26079.70454635  .00000124  00000+0  60703-4 0  9990
2 28480  98.1980 354.0025 0140397 122.0427 239.4481 14.26995708110071
ARIANE 5 R/B            
1 28499U 04049H   26079.95044811  .00000634  00000+0  76637-4 0  9990
2 28499  98.2643 248.8303 0083203 315.1907  44.2607 14.85284921147465
CZ-2D R/B               
1 28738U 05024B   26079.28897950  .00029756  00000+0  35450-3 0  9999
2 28738  97.3582  94.8309 0003983  16.3856 343.7530 15.61045673141435
